start=new Date('2023-02-23T00:00:00.000Z').valueOf();
sats=[{"TIME_SYSTEM":"UTC","TLE_LINE2":"2 54076  53.2169 290.0689 0000963  74.5621 285.5478 15.08835432 19162","EPOCH":"2023-02-22T22:25:33.727296","PERIAPSIS":"539.093","MEAN_ANOMALY":"285.5478","ELEMENT_SET_NO":"999","MEAN_MOTION_DOT":"-0.00000164","SITE":"AFETR","RCS_SIZE":"LARGE","ECCENTRICITY":"0.00009630","BSTAR":"0.00000775350000","RA_OF_ASC_NODE":"290.0689","FILE":"3825529","APOAPSIS":"540.426","COUNTRY_CODE":"US","OBJECT_TYPE":"PAYLOAD","CENTER_NAME":"EARTH","PERIOD":"95.438","OBJECT_NAME":"STARLINK-5201","CLASSIFICATION_TYPE":"U","GP_ID":"226476867","SEMIMAJOR_AXIS":"6917.894","MEAN_MOTION":"15.08835432","REF_FRAME":"TEME","LAUNCH_DATE":"2022-10-20","EPHEMERIS_TYPE":"0","NORAD_CAT_ID":"54076","REV_AT_EPOCH":"1916","MEAN_MOTION_DDOT":"0.0000000000000","MEAN_ELEMENT_THEORY":"SGP4","OBJECT_ID":"2022-136AB","DECAY_DATE":null,"ARG_OF_PERICENTER":"74.5621","TLE_LINE1":"1 54076U 22136AB  23053.93441814 -.00000164  00000-0  77535-5 0  9997","INCLINATION":"53.2169"},{"MEAN_MOTION":"15.08875859","SEMIMAJOR_AXIS":"6917.771","GP_ID":"226477092","CLASSIFICATION_TYPE":"U","PERIOD":"95.435","OBJECT_NAME":"STARLINK-5171","CENTER_NAME":"EARTH","REV_AT_EPOCH":"1943","NORAD_CAT_ID":"54077","EPHEMERIS_TYPE":"0","REF_FRAME":"TEME","LAUNCH_DATE":"2022-10-20","DECAY_DATE":null,"OBJECT_ID":"2022-136AC","MEAN_ELEMENT_THEORY":"SGP4","MEAN_MOTION_DDOT":"0.0000000000000","INCLINATION":"53.2168","ARG_OF_PERICENTER":"80.3538","TLE_LINE1":"1 54077U 22136AC  23053.88201442  .00009448  00000-0  61031-3 0  9998","EPOCH":"2023-02-22T21:10:06.045888","TLE_LINE2":"2 54077  53.2168 270.4865 0001339  80.3538 279.7605 15.08875859 19434","TIME_SYSTEM":"UTC","SITE":"AFETR","RCS_SIZE":"LARGE","MEAN_MOTION_DOT":"0.00009448","ELEMENT_SET_NO":"999","MEAN_ANOMALY":"279.7605","PERIAPSIS":"538.709","RA_OF_ASC_NODE":"270.4865","BSTAR":"0.00061031000000","ECCENTRICITY":"0.00013390","COUNTRY_CODE":"US","OBJECT_TYPE":"PAYLOAD","APOAPSIS":"540.562","FILE":"3825529"},{"ELEMENT_SET_NO":"999","MEAN_MOTION_DOT":"0.00000044","SITE":"AFETR","RCS_SIZE":"LARGE","PERIAPSIS":"538.914","MEAN_ANOMALY":"270.7900","TLE_LINE2":"2 54078  53.2160 270.6926 0001223  89.3232 270.7900 15.08835162 19431","EPOCH":"2023-02-22T21:57:53.275680","TIME_SYSTEM":"UTC","APOAPSIS":"540.606","COUNTRY_CODE":"US","OBJECT_TYPE":"PAYLOAD","FILE":"3825529","BSTAR":"0.00002087500000","RA_OF_ASC_NODE":"270.6926","ECCENTRICITY":"0.00012230","EPHEMERIS_TYPE":"0","NORAD_CAT_ID":"54078","REV_AT_EPOCH":"1943","REF_FRAME":"TEME","LAUNCH_DATE":"2022-10-20","GP_ID":"226475866","CLASSIFICATION_TYPE":"U","SEMIMAJOR_AXIS":"6917.895","MEAN_MOTION":"15.08835162","CENTER_NAME":"EARTH","PERIOD":"95.438","OBJECT_NAME":"STARLINK-5138","INCLINATION":"53.2160","ARG_OF_PERICENTER":"89.3232","TLE_LINE1":"1 54078U 22136AD  23053.91519995  .00000044  00000-0  20875-4 0  9993","DECAY_DATE":null,"MEAN_MOTION_DDOT":"0.0000000000000","MEAN_ELEMENT_THEORY":"SGP4","OBJECT_ID":"2022-136AD"},{"ECCENTRICITY":"0.00013770","BSTAR":"-0.00000317250000","RA_OF_ASC_NODE":"280.7412","FILE":"3825529","APOAPSIS":"540.718","COUNTRY_CODE":"US","OBJECT_TYPE":"PAYLOAD","TIME_SYSTEM":"UTC","EPOCH":"2023-02-22T22:16:24.182688","TLE_LINE2":"2 54079  53.2163 280.7412 0001377 102.0967 258.0180 15.08833606 19299","MEAN_ANOMALY":"258.0180","PERIAPSIS":"538.812","RCS_SIZE":"LARGE","SITE":"AFETR","MEAN_MOTION_DOT":"-0.00000338","ELEMENT_SET_NO":"999","MEAN_ELEMENT_THEORY":"SGP4","OBJECT_ID":"2022-136AE","MEAN_MOTION_DDOT":"0.0000000000000","DECAY_DATE":null,"ARG_OF_PERICENTER":"102.0967","TLE_LINE1":"1 54079U 22136AE  23053.92805767 -.00000338  00000-0 -31725-5 0  9995","INCLINATION":"53.2163","CENTER_NAME":"EARTH","PERIOD":"95.438","OBJECT_NAME":"STARLINK-5175","MEAN_MOTION":"15.08833606","CLASSIFICATION_TYPE":"U","GP_ID":"226476116","SEMIMAJOR_AXIS":"6917.900","REF_FRAME":"TEME","LAUNCH_DATE":"2022-10-20","NORAD_CAT_ID":"54079","REV_AT_EPOCH":"1929","EPHEMERIS_TYPE":"0"},{"LAUNCH_DATE":"2022-10-20","REF_FRAME":"TEME","EPHEMERIS_TYPE":"0","NORAD_CAT_ID":"54080","REV_AT_EPOCH":"1909","PERIOD":"95.437","OBJECT_NAME":"STARLINK-5160","CENTER_NAME":"EARTH","SEMIMAJOR_AXIS":"6917.838","CLASSIFICATION_TYPE":"U","GP_ID":"226424608","MEAN_MOTION":"15.08853922","TLE_LINE1":"1 54080U 22136AF  23053.09137361  .00009668  00000-0  62444-3 0  9996","ARG_OF_PERICENTER":"96.8089","INCLINATION":"53.2152","MEAN_MOTION_DDOT":"0.0000000000000","OBJECT_ID":"2022-136AF","MEAN_ELEMENT_THEORY":"SGP4","DECAY_DATE":null,"PERIAPSIS":"538.902","MEAN_ANOMALY":"263.3034","ELEMENT_SET_NO":"999","MEAN_MOTION_DOT":"0.00009668","SITE":"AFETR","RCS_SIZE":"LARGE","TIME_SYSTEM":"UTC","TLE_LINE2":"2 54080  53.2152 289.7629 0001157  96.8089 263.3034 15.08853922 19097","EPOCH":"2023-02-22T02:11:34.679904","FILE":"3824148","OBJECT_TYPE":"PAYLOAD","COUNTRY_CODE":"US","APOAPSIS":"540.503","ECCENTRICITY":"0.00011570","RA_OF_ASC_NODE":"289.7629","BSTAR":"0.00062444000000"},{"FILE":"3825529","APOAPSIS":"540.571","OBJECT_TYPE":"PAYLOAD","COUNTRY_CODE":"US","ECCENTRICITY":"0.00011680","BSTAR":"0.00004514000000","RA_OF_ASC_NODE":"280.6938","MEAN_ANOMALY":"271.5745","PERIAPSIS":"538.955","SITE":"AFETR","MEAN_MOTION_DOT":"0.00000431","RCS_SIZE":"LARGE","ELEMENT_SET_NO":"999","TIME_SYSTEM":"UTC","EPOCH":"2023-02-22T22:05:47.339520","TLE_LINE2":"2 54081  53.2158 280.6938 0001168  88.5380 271.5745 15.08834082 19299","ARG_OF_PERICENTER":"88.5380","TLE_LINE1":"1 54081U 22136AG  23053.92068680  .00000431  00000-0  45140-4 0  9990","INCLINATION":"53.2158","MEAN_ELEMENT_THEORY":"SGP4","OBJECT_ID":"2022-136AG","MEAN_MOTION_DDOT":"0.0000000000000","DECAY_DATE":null,"LAUNCH_DATE":"2022-10-20","REF_FRAME":"TEME","REV_AT_EPOCH":"1929","NORAD_CAT_ID":"54081","EPHEMERIS_TYPE":"0","CENTER_NAME":"EARTH","OBJECT_NAME":"STARLINK-5165","PERIOD":"95.438","MEAN_MOTION":"15.08834082","GP_ID":"226477593","CLASSIFICATION_TYPE":"U","SEMIMAJOR_AXIS":"6917.898"},{"FILE":"3825529","OBJECT_TYPE":"PAYLOAD","COUNTRY_CODE":"US","APOAPSIS":"540.702","ECCENTRICITY":"0.00013300","RA_OF_ASC_NODE":"280.7158","BSTAR":"-0.00009987400000","PERIAPSIS":"538.862","MEAN_ANOMALY":"272.7481","ELEMENT_SET_NO":"999","SITE":"AFETR","RCS_SIZE":"LARGE","MEAN_MOTION_DOT":"-0.00001876","TIME_SYSTEM":"UTC","TLE_LINE2":"2 54082  53.2157 280.7158 0001330  87.3663 272.7481 15.08828048 19291","EPOCH":"2023-02-22T22:11:06.593568","ARG_OF_PERICENTER":"87.3663","TLE_LINE1":"1 54082U 22136AH  23053.92438187 -.00001876  00000-0 -99874-4 0  9993","INCLINATION":"53.2157","MEAN_MOTION_DDOT":"0.0000000000000","OBJECT_ID":"2022-136AH","MEAN_ELEMENT_THEORY":"SGP4","DECAY_DATE":null,"LAUNCH_DATE":"2022-10-20","REF_FRAME":"TEME","EPHEMERIS_TYPE":"0","NORAD_CAT_ID":"54082","REV_AT_EPOCH":"1929","PERIOD":"95.438","OBJECT_NAME":"STARLINK-5210","CENTER_NAME":"EARTH","SEMIMAJOR_AXIS":"6917.917","CLASSIFICATION_TYPE":"U","GP_ID":"226476367","MEAN_MOTION":"15.08828048"},{"PERIAPSIS":"539.027","MEAN_ANOMALY":"272.6132","ELEMENT_SET_NO":"999","RCS_SIZE":"LARGE","SITE":"AFETR","MEAN_MOTION_DOT":"-0.00002604","TIME_SYSTEM":"UTC","TLE_LINE2":"2 54083  53.2167 280.6534 0001133  87.4990 272.6132 15.08818635 19298","EPOCH":"2023-02-22T21:55:12.194976","FILE":"3825529","COUNTRY_CODE":"US","OBJECT_TYPE":"PAYLOAD","APOAPSIS":"540.594","ECCENTRICITY":"0.00011330","RA_OF_ASC_NODE":"280.6534","BSTAR":"-0.00014569000000","REF_FRAME":"TEME","LAUNCH_DATE":"2022-10-20","EPHEMERIS_TYPE":"0","NORAD_CAT_ID":"54083","REV_AT_EPOCH":"1929","PERIOD":"95.439","OBJECT_NAME":"STARLINK-5178","CENTER_NAME":"EARTH","SEMIMAJOR_AXIS":"6917.946","CLASSIFICATION_TYPE":"U","GP_ID":"226476617","MEAN_MOTION":"15.08818635","ARG_OF_PERICENTER":"87.4990","TLE_LINE1":"1 54083U 22136AJ  23053.91333559 -.00002604  00000-0 -14569-3 0  9997","INCLINATION":"53.2167","MEAN_MOTION_DDOT":"0.0000000000000","OBJECT_ID":"2022-136AJ","MEAN_ELEMENT_THEORY":"SGP4","DECAY_DATE":null},{"SEMIMAJOR_AXIS":"6917.892","GP_ID":"226476868","CLASSIFICATION_TYPE":"U","MEAN_MOTION":"15.08836061","OBJECT_NAME":"STARLINK-5183","PERIOD":"95.438","CENTER_NAME":"EARTH","EPHEMERIS_TYPE":"0","NORAD_CAT_ID":"54084","REV_AT_EPOCH":"1929","LAUNCH_DATE":"2022-10-20","REF_FRAME":"TEME","DECAY_DATE":null,"MEAN_MOTION_DDOT":"0.0000000000000","OBJECT_ID":"2022-136AK","MEAN_ELEMENT_THEORY":"SGP4","INCLINATION":"53.2147","TLE_LINE1":"1 54084U 22136AK  23053.91795918  .00000308  00000-0  37424-4 0  9992","ARG_OF_PERICENTER":"92.2688","TLE_LINE2":"2 54084  53.2147 280.6786 0001092  92.2688 267.8429 15.08836061 19296","EPOCH":"2023-02-22T22:01:51.673152","TIME_SYSTEM":"UTC","ELEMENT_SET_NO":"999","SITE":"AFETR","MEAN_MOTION_DOT":"0.00000308","RCS_SIZE":"LARGE","PERIAPSIS":"539.002","MEAN_ANOMALY":"267.8429","RA_OF_ASC_NODE":"280.6786","BSTAR":"0.00003742400000","ECCENTRICITY":"0.00010920","OBJECT_TYPE":"PAYLOAD","COUNTRY_CODE":"US","APOAPSIS":"540.513","FILE":"3825529"},{"OBJECT_NAME":"STARLINK-5166","PERIOD":"95.438","CENTER_NAME":"EARTH","MEAN_MOTION":"15.08831928","SEMIMAJOR_AXIS":"6917.905","CLASSIFICATION_TYPE":"U","GP_ID":"226477093","LAUNCH_DATE":"2022-10-20","REF_FRAME":"TEME","NORAD_CAT_ID":"54085","REV_AT_EPOCH":"1929","EPHEMERIS_TYPE":"0","OBJECT_ID":"2022-136AL","MEAN_ELEMENT_THEORY":"SGP4","MEAN_MOTION_DDOT":"0.0000000000000","DECAY_DATE":null,"TLE_LINE1":"1 54085U 22136AL  23053.90963268 -.00000054  00000-0  14693-4 0  9999","ARG_OF_PERICENTER":"85.5056","INCLINATION":"53.2152","TIME_SYSTEM":"UTC","EPOCH":"2023-02-22T21:49:52.263552","TLE_LINE2":"2 54085  53.2152 280.6321 0000874  85.5056 274.6036 15.08831928 19296","MEAN_ANOMALY":"274.6036","PERIAPSIS":"539.165","SITE":"AFETR","RCS_SIZE":"LARGE","MEAN_MOTION_DOT":"-0.00000054","ELEMENT_SET_NO":"999","ECCENTRICITY":"0.00008740","RA_OF_ASC_NODE":"280.6321","BSTAR":"0.00001469300000","FILE":"3825529","OBJECT_TYPE":"PAYLOAD","COUNTRY_CODE":"US","APOAPSIS":"540.375"}];
